[{"OBJECT_NAME":"OBJECT AL","OBJECT_ID":"2023-091AL","EPOCH":"2026-03-09T22:53:40.653600","MEAN_MOTION":15.4037964,"ECCENTRICITY":0.00073468,"INCLINATION":97.5155,"RA_OF_ASC_NODE":140.236,"ARG_OF_PERICENTER":61.3849,"MEAN_ANOMALY":298.8135,"EPHEMERIS_TYPE":0,"CLASSIFICATION_TYPE":"U","NORAD_CAT_ID":57200,"ELEMENT_SET_NO":999,"REV_AT_EPOCH":14970,"BSTAR":0.00078905328,"MEAN_MOTION_DOT":0.00031911,"MEAN_MOTION_DDOT":0},{"OBJECT_NAME":"KUIPER-00134","OBJECT_ID":"2025-228P","EPOCH":"2026-03-09T23:25:39.467136","MEAN_MOTION":15.38627825,"ECCENTRICITY":0.00043719,"INCLINATION":51.8757,"RA_OF_ASC_NODE":318.9949,"ARG_OF_PERICENTER":326.8594,"MEAN_ANOMALY":33.2119,"EPHEMERIS_TYPE":0,"CLASSIFICATION_TYPE":"U","NORAD_CAT_ID":65960,"ELEMENT_SET_NO":999,"REV_AT_EPOCH":2383,"BSTAR":0.00094701326,"MEAN_MOTION_DOT":0.00036491,"MEAN_MOTION_DDOT":0}]
